CCSDS_OMM_VERS = 2.0
CREATION_DATE  = 
ORIGINATOR     = 

OBJECT_NAME    = DELTA 2 R/B(1)
OBJECT_ID      = 1990-008B
CENTER_NAME    = EARTH
REF_FRAME      = TEME
TIME_SYSTEM    = UTC
MEAN_ELEMENT_THEORY = SGP/SGP4

EPOCH          = 2026-02-10T06:19:29.322048
MEAN_MOTION    = 15.52162436
ECCENTRICITY   = .0093532
INCLINATION    = 35.6055
RA_OF_ASC_NODE = 354.3158
ARG_OF_PERICENTER = 2.5651
MEAN_ANOMALY   = 357.5548

EPHEMERIS_TYPE = 0
CLASSIFICATION_TYPE = U
NORAD_CAT_ID   = 20453
ELEMENT_SET_NO = 999
REV_AT_EPOCH   = 92186
BSTAR          = .87954E-3
MEAN_MOTION_DOT = .66828E-3
MEAN_MOTION_DDOT = 0

CCSDS_OMM_VERS = 2.0
CREATION_DATE  = 
ORIGINATOR     = 

OBJECT_NAME    = COSMOS 2058
OBJECT_ID      = 1990-010A
CENTER_NAME    = EARTH
REF_FRAME      = TEME
TIME_SYSTEM    = UTC
MEAN_ELEMENT_THEORY = SGP/SGP4

EPOCH          = 2026-02-10T12:00:04.593024
MEAN_MOTION    = 15.11067688
ECCENTRICITY   = .0011885
INCLINATION    = 82.4645
RA_OF_ASC_NODE = 74.2134
ARG_OF_PERICENTER = 72.9786
MEAN_ANOMALY   = 287.2745

EPHEMERIS_TYPE = 0
CLASSIFICATION_TYPE = U
NORAD_CAT_ID   = 20465
ELEMENT_SET_NO = 999
REV_AT_EPOCH   = 93813
BSTAR          = .25677E-3
MEAN_MOTION_DOT = .433E-4
MEAN_MOTION_DDOT = 0

CCSDS_OMM_VERS = 2.0
CREATION_DATE  = 
ORIGINATOR     = 

OBJECT_NAME    = SL-14 R/B
OBJECT_ID      = 1990-010B
CENTER_NAME    = EARTH
REF_FRAME      = TEME
TIME_SYSTEM    = UTC
MEAN_ELEMENT_THEORY = SGP/SGP4

EPOCH          = 2026-02-10T04:02:37.599072
MEAN_MOTION    = 14.83544862
ECCENTRICITY   = .0020709
INCLINATION    = 82.5025
RA_OF_ASC_NODE = 293.2415
ARG_OF_PERICENTER = 34.3435
MEAN_ANOMALY   = 325.9114

EPHEMERIS_TYPE = 0
CLASSIFICATION_TYPE = U
NORAD_CAT_ID   = 20466
ELEMENT_SET_NO = 999
REV_AT_EPOCH   = 92440
BSTAR          = .56942E-4
MEAN_MOTION_DOT = .494E-5
MEAN_MOTION_DDOT = 0

CCSDS_OMM_VERS = 2.0
CREATION_DATE  = 
ORIGINATOR     = 

OBJECT_NAME    = SL-14 R/B
OBJECT_ID      = 1990-018B
CENTER_NAME    = EARTH
REF_FRAME      = TEME
TIME_SYSTEM    = UTC
MEAN_ELEMENT_THEORY = SGP/SGP4

EPOCH          = 2026-02-10T02:12:49.129056
MEAN_MOTION    = 14.82115477
ECCENTRICITY   = .00163281
INCLINATION    = 82.5181
RA_OF_ASC_NODE = 248.8906
ARG_OF_PERICENTER = 177.9033
MEAN_ANOMALY   = 182.2253

EPHEMERIS_TYPE = 0
CLASSIFICATION_TYPE = U
NORAD_CAT_ID   = 20511
ELEMENT_SET_NO = 999
REV_AT_EPOCH   = 91849
BSTAR          = .51881964E-4
MEAN_MOTION_DOT = .437E-5
MEAN_MOTION_DDOT = 0

CCSDS_OMM_VERS = 2.0
CREATION_DATE  = 
ORIGINATOR     = 

OBJECT_NAME    = HST
OBJECT_ID      = 1990-037B
CENTER_NAME    = EARTH
REF_FRAME      = TEME
TIME_SYSTEM    = UTC
MEAN_ELEMENT_THEORY = SGP/SGP4

EPOCH          = 2026-02-09T18:00:39.033792
MEAN_MOTION    = 15.29031698
ECCENTRICITY   = .00017443
INCLINATION    = 28.4664
RA_OF_ASC_NODE = 230.5298
ARG_OF_PERICENTER = 153.1588
MEAN_ANOMALY   = 206.9098

EPHEMERIS_TYPE = 0
CLASSIFICATION_TYPE = U
NORAD_CAT_ID   = 20580
ELEMENT_SET_NO = 999
REV_AT_EPOCH   = 76903
BSTAR          = .25799604E-3
MEAN_MOTION_DOT = .7715E-4
MEAN_MOTION_DDOT = 0

CCSDS_OMM_VERS = 2.0
CREATION_DATE  = 
ORIGINATOR     = 

OBJECT_NAME    = SL-16 R/B
OBJECT_ID      = 1990-046B
CENTER_NAME    = EARTH
REF_FRAME      = TEME
TIME_SYSTEM    = UTC
MEAN_ELEMENT_THEORY = SGP/SGP4

EPOCH          = 2026-02-10T08:08:50.906112
MEAN_MOTION    = 14.15007014
ECCENTRICITY   = .0014809
INCLINATION    = 71.0006
RA_OF_ASC_NODE = 355.3511
ARG_OF_PERICENTER = 337.8477
MEAN_ANOMALY   = 22.2004

EPHEMERIS_TYPE = 0
CLASSIFICATION_TYPE = U
NORAD_CAT_ID   = 20625
ELEMENT_SET_NO = 999
REV_AT_EPOCH   = 84452
BSTAR          = .16228E-3
MEAN_MOTION_DOT = .267E-5
MEAN_MOTION_DDOT = 0

CCSDS_OMM_VERS = 2.0
CREATION_DATE  = 
ORIGINATOR     = 

OBJECT_NAME    = COSMOS 2084
OBJECT_ID      = 1990-055A
CENTER_NAME    = EARTH
REF_FRAME      = TEME
TIME_SYSTEM    = UTC
MEAN_ELEMENT_THEORY = SGP/SGP4

EPOCH          = 2026-02-10T08:34:46.836192
MEAN_MOTION    = 15.05471746
ECCENTRICITY   = .0021463
INCLINATION    = 62.7895
RA_OF_ASC_NODE = 68.7853
ARG_OF_PERICENTER = 184.2244
MEAN_ANOMALY   = 175.8679

EPHEMERIS_TYPE = 0
CLASSIFICATION_TYPE = U
NORAD_CAT_ID   = 20663
ELEMENT_SET_NO = 999
REV_AT_EPOCH   = 93220
BSTAR          = .19787E-3
MEAN_MOTION_DOT = .2667E-4
MEAN_MOTION_DDOT = 0

CCSDS_OMM_VERS = 2.0
CREATION_DATE  = 
ORIGINATOR     = 

OBJECT_NAME    = SL-6 R/B(2)
OBJECT_ID      = 1990-055D
CENTER_NAME    = EARTH
REF_FRAME      = TEME
TIME_SYSTEM    = UTC
MEAN_ELEMENT_THEORY = SGP/SGP4

EPOCH          = 2026-02-10T07:16:33.323808
MEAN_MOTION    = 15.03450954
ECCENTRICITY   = .0020633
INCLINATION    = 62.7847
RA_OF_ASC_NODE = 346.9720
ARG_OF_PERICENTER = 339.2958
MEAN_ANOMALY   = 20.7303

EPHEMERIS_TYPE = 0
CLASSIFICATION_TYPE = U
NORAD_CAT_ID   = 20666
ELEMENT_SET_NO = 999
REV_AT_EPOCH   = 93407
BSTAR          = .22425E-3
MEAN_MOTION_DOT = .2882E-4
MEAN_MOTION_DDOT = 0

CCSDS_OMM_VERS = 2.0
CREATION_DATE  = 
ORIGINATOR     = 

OBJECT_NAME    = SL-8 R/B
OBJECT_ID      = 1990-078B
CENTER_NAME    = EARTH
REF_FRAME      = TEME
TIME_SYSTEM    = UTC
MEAN_ELEMENT_THEORY = SGP/SGP4

EPOCH          = 2026-02-10T03:36:20.661696
MEAN_MOTION    = 14.88150451
ECCENTRICITY   = .03668728
INCLINATION    = 82.9019
RA_OF_ASC_NODE = 276.0595
ARG_OF_PERICENTER = 106.2701
MEAN_ANOMALY   = 257.9199

EPHEMERIS_TYPE = 0
CLASSIFICATION_TYPE = U
NORAD_CAT_ID   = 20775
ELEMENT_SET_NO = 999
REV_AT_EPOCH   = 80520
BSTAR          = .43682396E-3
MEAN_MOTION_DOT = .14837E-3
MEAN_MOTION_DDOT = 0

CCSDS_OMM_VERS = 2.0
CREATION_DATE  = 
ORIGINATOR     = 

OBJECT_NAME    = SL-8 R/B
OBJECT_ID      = 1991-006B
CENTER_NAME    = EARTH
REF_FRAME      = TEME
TIME_SYSTEM    = UTC
MEAN_ELEMENT_THEORY = SGP/SGP4

EPOCH          = 2026-02-10T11:00:56.198592
MEAN_MOTION    = 13.77492148
ECCENTRICITY   = .0023692
INCLINATION    = 82.9436
RA_OF_ASC_NODE = 190.2904
ARG_OF_PERICENTER = 110.7683
MEAN_ANOMALY   = 314.1923

EPHEMERIS_TYPE = 0
CLASSIFICATION_TYPE = U
NORAD_CAT_ID   = 21088
ELEMENT_SET_NO = 999
REV_AT_EPOCH   = 76032
BSTAR          = .21492E-4
MEAN_MOTION_DOT = .37E-6
MEAN_MOTION_DDOT = 0

CCSDS_OMM_VERS = 2.0
CREATION_DATE  = 
ORIGINATOR     = 

OBJECT_NAME    = OKEAN-3
OBJECT_ID      = 1991-039A
CENTER_NAME    = EARTH
REF_FRAME      = TEME
TIME_SYSTEM    = UTC
MEAN_ELEMENT_THEORY = SGP/SGP4

EPOCH          = 2026-02-10T08:20:10.843008
MEAN_MOTION    = 15.04584430
ECCENTRICITY   = .001651
INCLINATION    = 82.5175
RA_OF_ASC_NODE = 3.3235
ARG_OF_PERICENTER = 66.7607
MEAN_ANOMALY   = 293.5356

EPHEMERIS_TYPE = 0
CLASSIFICATION_TYPE = U
NORAD_CAT_ID   = 21397
ELEMENT_SET_NO = 999
REV_AT_EPOCH   = 86092
BSTAR          = .26035E-3
MEAN_MOTION_DOT = .369E-4
MEAN_MOTION_DDOT = 0

CCSDS_OMM_VERS = 2.0
CREATION_DATE  = 
ORIGINATOR     = 

OBJECT_NAME    = COSMOS 2151
OBJECT_ID      = 1991-042A
CENTER_NAME    = EARTH
REF_FRAME      = TEME
TIME_SYSTEM    = UTC
MEAN_ELEMENT_THEORY = SGP/SGP4

EPOCH          = 2026-02-10T11:12:45.438912
MEAN_MOTION    = 15.00000612
ECCENTRICITY   = .0013403
INCLINATION    = 82.4962
RA_OF_ASC_NODE = 109.9367
ARG_OF_PERICENTER = 146.1589
MEAN_ANOMALY   = 214.0493

EPHEMERIS_TYPE = 0
CLASSIFICATION_TYPE = U
NORAD_CAT_ID   = 21422
ELEMENT_SET_NO = 999
REV_AT_EPOCH   = 85911
BSTAR          = .17271E-3
MEAN_MOTION_DOT = .2177E-4
MEAN_MOTION_DDOT = 0

